OBJECT_NAME,OBJECT_ID,EPOCH,MEAN_MOTION,ECCENTRICITY,INCLINATION,RA_OF_ASC_NODE,ARG_OF_PERICENTER,MEAN_ANOMALY,EPHEMERIS_TYPE,CLASSIFICATION_TYPE,NORAD_CAT_ID,ELEMENT_SET_NO,REV_AT_EPOCH,BSTAR,MEAN_MOTION_DOT,MEAN_MOTION_DDOT
CZ-7 DEB,2024-013C,2024-01-18T02:44:11.395392,15.73710950,.0234014,41.8298,285.9373,181.6233,328.2070,0,U,58813,999,9,0,-.2294E-4,.7267E-5
CZ-7 DEB,2024-013D,2024-01-18T02:44:48.187104,15.72861586,.0240306,41.6413,286.0086,187.1577,323.2676,0,U,58814,999,8,0,-.224E-4,.7095E-5
2024-014A,2024-015A,2024-01-20T08:56:41.803584,15.50369419,.0004066,51.6453,332.7333,135.9816,16.7055,0,U,58815,999,22,.1E-3,.5329E-4,0
2024-015A,2024-015A,2024-01-20T19:53:45.480768,14.41900293,.0011881,64.5178,111.0807,250.8774,254.4677,0,U,58817,999,8,-.51005E-2,-.16818E-3,0
2024-015B,2024-015B,2024-01-20T19:54:21.506976,14.43302164,.0011824,64.5073,111.0757,282.8793,227.3870,0,U,58818,999,8,0,-.108E-5,0
