2024-013C               
1 58813U 24013C   24018.11402078 -.00002294  72670-5  00000+0 0  9997
2 58813  41.8298 285.9373 0234014 181.6233 328.2070 15.73710950    93
2024-013D               
1 58814U 24013D   24018.11444661 -.00002240  70950-5  00000+0 0  9992
2 58814  41.6413 286.0086 0240306 187.1577 323.2676 15.72861586    84
2024-014A               
1 58815U 24015A   24020.37270606  .00005329  00000+0  10000-3 0  9990
2 58815  51.6453 332.7333 0004066 135.9816  16.7055 15.50369419   227
2024-015A               
1 58817U 24015A   24020.82899862 -.00016818  00000+0 -51005-2 0  9999
2 58817  64.5178 111.0807 0011881 250.8774 254.4677 14.41900293    88
2024-015B               
1 58818U 24015B   24020.82941559 -.00000108  00000+0  00000+0 0  9991
2 58818  64.5073 111.0757 0011824 282.8793 227.3870 14.43302164    89
